{
  "norad_id": 49090,
  "name": "ONEWEB-0301",
  "history": [
    {
      "epoch": "2026-03-28T19:27:05.529888Z",
      "apogee_km": 1215.0349456152617,
      "perigee_km": 1212.4089216101247,
      "latitude_deg": 3.2711309438043954e-05,
      "longitude_deg": -111.38592209986392,
      "height_km": 1216.6175489217876,
      "semi_major_axis_km": 7591.858933612692,
      "eccentricity": 0.00017295,
      "inclination_deg": 87.9016,
      "raan_deg": 6.6127,
      "arg_perigee_deg": 90.3358,
      "mean_anomaly_deg": 269.7969,
      "mean_motion_rev_day": 13.12443352
    },
    {
      "epoch": "2026-03-29T04:35:59.937216Z",
      "apogee_km": 1215.0349517238901,
      "perigee_km": 1212.4096867712951,
      "latitude_deg": -6.148295918992786e-05,
      "longitude_deg": 110.93616394324044,
      "height_km": 1216.6235658984972,
      "semi_major_axis_km": 7591.859319247593,
      "eccentricity": 0.0001729,
      "inclination_deg": 87.9016,
      "raan_deg": 6.5372,
      "arg_perigee_deg": 90.581,
      "mean_anomaly_deg": 269.5516,
      "mean_motion_rev_day": 13.12443252
    },
    {
      "epoch": "2026-03-30T04:23:09.449664Z",
      "apogee_km": 1215.04790546412,
      "perigee_km": 1212.3998643874593,
      "latitude_deg": 6.729281723162404e-05,
      "longitude_deg": 112.97307874959247,
      "height_km": 1216.6249785697773,
      "semi_major_axis_km": 7591.86088492579,
      "eccentricity": 0.0001744,
      "inclination_deg": 87.9016,
      "raan_deg": 6.3406,
      "arg_perigee_deg": 90.5714,
      "mean_anomaly_deg": 269.5615,
      "mean_motion_rev_day": 13.12442846
    },
    {
      "epoch": "2026-03-30T04:23:09.450528Z",
      "apogee_km": 1215.047677708295,
      "perigee_km": 1212.4000921432862,
      "latitude_deg": 7.073504575500571e-05,
      "longitude_deg": 112.97307526522341,
      "height_km": 1216.6249762997925,
      "semi_major_axis_km": 7591.86088492579,
      "eccentricity": 0.00017437,
      "inclination_deg": 87.9016,
      "raan_deg": 6.3406,
      "arg_perigee_deg": 90.5714,
      "mean_anomaly_deg": 269.5615,
      "mean_motion_rev_day": 13.12442846
    },
    {
      "epoch": "2026-03-30T11:42:17.001792Z",
      "apogee_km": 1215.0450049373867,
      "perigee_km": 1212.4031891128452,
      "latitude_deg": 1.3537193243082175e-05,
      "longitude_deg": 2.8306389654808393,
      "height_km": 1216.6205102906333,
      "semi_major_axis_km": 7591.861097025116,
      "eccentricity": 0.00017399,
      "inclination_deg": 87.9016,
      "raan_deg": 6.2802,
      "arg_perigee_deg": 90.3691,
      "mean_anomaly_deg": 269.7637,
      "mean_motion_rev_day": 13.12442791
    },
    {
      "epoch": "2026-03-30T19:01:24.586752Z",
      "apogee_km": 1215.0551267427327,
      "perigee_km": 1212.3956973397944,
      "latitude_deg": -1.9401958731609113e-05,
      "longitude_deg": -107.31193723430519,
      "height_km": 1216.623518882573,
      "semi_major_axis_km": 7591.862412041263,
      "eccentricity": 0.00017515,
      "inclination_deg": 87.9016,
      "raan_deg": 6.2198,
      "arg_perigee_deg": 90.4403,
      "mean_anomaly_deg": 269.6926,
      "mean_motion_rev_day": 13.1244245
    },
    {
      "epoch": "2026-03-31T11:29:26.578176Z",
      "apogee_km": 1215.0541516795884,
      "perigee_km": 1212.3929008907044,
      "latitude_deg": 6.710367986706393e-05,
      "longitude_deg": 4.86758454298103,
      "height_km": 1216.6196209247871,
      "semi_major_axis_km": 7591.860526285146,
      "eccentricity": 0.00017527,
      "inclination_deg": 87.9016,
      "raan_deg": 6.0839,
      "arg_perigee_deg": 90.354,
      "mean_anomaly_deg": 269.779,
      "mean_motion_rev_day": 13.12442939
    },
    {
      "epoch": "2026-04-01T11:16:36.324768Z",
      "apogee_km": 1215.0635276275116,
      "perigee_km": 1212.391191372968,
      "latitude_deg": -1.7028694872518117e-05,
      "longitude_deg": 6.9039140057921555,
      "height_km": 1216.6218316234858,
      "semi_major_axis_km": 7591.8643595002395,
      "eccentricity": 0.000176,
      "inclination_deg": 87.9017,
      "raan_deg": 5.8877,
      "arg_perigee_deg": 90.283,
      "mean_anomaly_deg": 269.85,
      "mean_motion_rev_day": 13.12441945
    },
    {
      "epoch": "2026-04-02T11:03:46.063584Z",
      "apogee_km": 1215.0708484677825,
      "perigee_km": 1212.382721338823,
      "latitude_deg": -3.6336004455265806e-05,
      "longitude_deg": 8.940277984885734,
      "height_km": 1216.6205879923787,
      "semi_major_axis_km": 7591.863784903302,
      "eccentricity": 0.00017704,
      "inclination_deg": 87.9016,
      "raan_deg": 5.6915,
      "arg_perigee_deg": 90.2535,
      "mean_anomaly_deg": 269.8796,
      "mean_motion_rev_day": 13.12442094
    },
    {
      "epoch": "2026-04-03T18:10:03.485856Z",
      "apogee_km": 1215.0915789551555,
      "perigee_km": 1212.3630629182117,
      "latitude_deg": -4.091569231677933e-05,
      "longitude_deg": -99.16644503029553,
      "height_km": 1216.624894940061,
      "semi_major_axis_km": 7591.864320936684,
      "eccentricity": 0.0001797,
      "inclination_deg": 87.9014,
      "raan_deg": 5.4348,
      "arg_perigee_deg": 90.4101,
      "mean_anomaly_deg": 269.7233,
      "mean_motion_rev_day": 13.12441955
    },
    {
      "epoch": "2026-04-04T05:08:44.929824Z",
      "apogee_km": 1215.1027517893126,
      "perigee_km": 1212.3520674764159,
      "latitude_deg": -8.319728654730155e-06,
      "longitude_deg": 95.61931494998217,
      "height_km": 1216.6200711912386,
      "semi_major_axis_km": 7591.864409632864,
      "eccentricity": 0.00018116,
      "inclination_deg": 87.9013,
      "raan_deg": 5.3441,
      "arg_perigee_deg": 90.2035,
      "mean_anomaly_deg": 269.9301,
      "mean_motion_rev_day": 13.12441932
    },
    {
      "epoch": "2026-04-05T12:15:02.210400Z",
      "apogee_km": 1215.1058333438996,
      "perigee_km": 1212.3402705641738,
      "latitude_deg": -1.9754015958956688e-05,
      "longitude_deg": -12.487018278914038,
      "height_km": 1216.5992982204198,
      "semi_major_axis_km": 7591.860051954037,
      "eccentricity": 0.00018214,
      "inclination_deg": 87.9014,
      "raan_deg": 5.0872,
      "arg_perigee_deg": 89.5229,
      "mean_anomaly_deg": 270.6108,
      "mean_motion_rev_day": 13.12443062
    },
    {
      "epoch": "2026-04-05T19:34:09.829920Z",
      "apogee_km": 1215.1072383441997,
      "perigee_km": 1212.3422822910934,
      "latitude_deg": -1.4852578852932836e-05,
      "longitude_deg": -122.62973839207486,
      "height_km": 1216.5994157077464,
      "semi_major_axis_km": 7591.861760317646,
      "eccentricity": 0.0001821,
      "inclination_deg": 87.9014,
      "raan_deg": 5.0268,
      "arg_perigee_deg": 89.4569,
      "mean_anomaly_deg": 270.6768,
      "mean_motion_rev_day": 13.12442619
    },
    {
      "epoch": "2026-04-06T04:43:04.252800Z",
      "apogee_km": 1215.1096326668685,
      "perigee_km": 1212.3345045029373,
      "latitude_deg": 7.36281979644328e-06,
      "longitude_deg": 99.69208607548522,
      "height_km": 1216.618539352492,
      "semi_major_axis_km": 7591.859068584902,
      "eccentricity": 0.00018277,
      "inclination_deg": 87.9015,
      "raan_deg": 4.9511,
      "arg_perigee_deg": 90.3601,
      "mean_anomaly_deg": 269.7737,
      "mean_motion_rev_day": 13.12443317
    },
    {
      "epoch": "2026-04-07T11:49:21.512640Z",
      "apogee_km": 1214.9961996825305,
      "perigee_km": 1212.4729652433834,
      "latitude_deg": 8.641288110881985e-06,
      "longitude_deg": -8.414161830392576,
      "height_km": 1216.6183759628584,
      "semi_major_axis_km": 7591.871582462957,
      "eccentricity": 0.00016618,
      "inclination_deg": 87.9015,
      "raan_deg": 4.6942,
      "arg_perigee_deg": 89.8074,
      "mean_anomaly_deg": 270.3245,
      "mean_motion_rev_day": 13.12440072
    },
    {
      "epoch": "2026-04-07T17:18:42.168096Z",
      "apogee_km": 1215.1314120767875,
      "perigee_km": 1212.3163500620876,
      "latitude_deg": 5.935496849097689e-06,
      "longitude_deg": -91.02095513372204,
      "height_km": 1216.6191493660624,
      "semi_major_axis_km": 7591.860881069438,
      "eccentricity": 0.0001854,
      "inclination_deg": 87.9014,
      "raan_deg": 4.6489,
      "arg_perigee_deg": 90.308,
      "mean_anomaly_deg": 269.8261,
      "mean_motion_rev_day": 13.12442847
    },
    {
      "epoch": "2026-04-08T11:36:31.064832Z",
      "apogee_km": 1215.1775181985495,
      "perigee_km": 1212.2756042709034,
      "latitude_deg": 5.0837369131848705e-05,
      "longitude_deg": -6.37721983666634,
      "height_km": 1216.6233929453015,
      "semi_major_axis_km": 7591.863561234726,
      "eccentricity": 0.00019112,
      "inclination_deg": 87.9012,
      "raan_deg": 4.4978,
      "arg_perigee_deg": 90.3649,
      "mean_anomaly_deg": 269.7699,
      "mean_motion_rev_day": 13.12442152
    },
    {
      "epoch": "2026-04-09T18:42:48.034368Z",
      "apogee_km": 1215.1796380806873,
      "perigee_km": 1212.268918466597,
      "latitude_deg": -1.570632307999332e-05,
      "longitude_deg": -114.48205772812533,
      "height_km": 1216.6041832240307,
      "semi_major_axis_km": 7591.861278273642,
      "eccentricity": 0.0001917,
      "inclination_deg": 87.9012,
      "raan_deg": 4.2411,
      "arg_perigee_deg": 89.6975,
      "mean_anomaly_deg": 270.4373,
      "mean_motion_rev_day": 13.12442744
    },
    {
      "epoch": "2026-04-10T11:10:49.949760Z",
      "apogee_km": 1215.187110372026,
      "perigee_km": 1212.261207081453,
      "latitude_deg": 6.994651127353997e-05,
      "longitude_deg": -2.302320977726068,
      "height_km": 1216.6061905280926,
      "semi_major_axis_km": 7591.86115872674,
      "eccentricity": 0.0001927,
      "inclination_deg": 87.9011,
      "raan_deg": 4.1051,
      "arg_perigee_deg": 89.7836,
      "mean_anomaly_deg": 270.3514,
      "mean_motion_rev_day": 13.12442775
    }
  ]
}